STARLINK-1958           
1 47559U 21009M   26068.89583456  .00097472  00000+0  87609-3 0  9993
2 47559  53.0457 320.4715 0005390 347.5018  12.5863 15.67474201281679
STARLINK-11307 [DTC]    
1 61210U 24171L   26068.56111920 -.00003500  00000+0 -24039-4 0  9993
2 61210  53.1605 177.2511 0001226 128.1588 231.9540 15.69712277 84373
